ONEWEB-0309             
1 49095U 21075W   24081.78866872  .00000109  00000+0  24821-3 0  9998
2 49095  87.9256 168.4809 0001894 123.9828 236.1484 13.17648275125939
ONEWEB-0310             
1 49096U 21075X   24081.74466352  .00000049  00000+0  10117-3 0  9990
2 49096  87.9020 153.3777 0001805 106.8264 253.3063 13.12441413127961
ONEWEB-0311             
1 49097U 21075Y   24082.17468170  .00000011  00000+0 -37631-5 0  9991
2 49097  87.9254 168.4050 0002521 107.9486 252.1921 13.17648122127035
ONEWEB-0312             
1 49098U 21075Z   24081.73330159 -.00000047  00000+0 -15381-3 0  9994
2 49098  87.9255 168.5247 0002273 117.0317 243.1046 13.17647561125958
ONEWEB-0313             
1 49099U 21075AA  24082.24270842  .00000070  00000+0  14701-3 0  9993
2 49099  87.9254 168.4265 0002224 112.7003 247.4364 13.17648035127013
ONEWEB-0314             
1 49100U 21075AB  24082.23638246  .00000832  00000+0  21100-2 0  9997
2 49100  87.9252 168.3893 0002328 117.4525 242.6844 13.17644804126970
ONEWEB-0315             
1 49101U 21075AC  24082.17668642  .00000279  00000+0  74145-3 0  9997
2 49101  87.9007 153.2871 0001947  98.4441 261.6908 13.12444169129005
ONEWEB-0316             
1 49102U 21075AD  24081.66606515 -.00000297  00000+0 -78712-3 0  9998
2 49102  87.9186 138.1906 0002275 101.0639 259.0749 13.18685190129461
